{"type": "FeatureCollection", "features": [{"type": "Feature", "properties": {"norad_id": 24876, "name": "GPS BIIR-2  (PRN 13)", "group": "gps-ops", "lat": 20.621430139457562, "lon": -88.86880521533352, "alt_km": 20212.361438219123, "timestamp": "2025-12-11T22:43:47.527004+00:00", "meta": {"OBJECT_NAME": "GPS BIIR-2  (PRN 13)", "OBJECT_ID": "1997-035A", "EPOCH": "2025-12-10T17:43:14.126880", "MEAN_MOTION": 2.00563589, "ECCENTRICITY": 0.0096757, "INCLINATION": 55.8943, "RA_OF_ASC_NODE": 105.9471, "ARG_OF_PERICENTER": 57.0036, "MEAN_ANOMALY": 303.9018, "EPHEMERIS_TYPE": 0, "CLASSIFICATION_TYPE": "U", "NORAD_CAT_ID": 24876, "ELEMENT_SET_NO": 999, "REV_AT_EPOCH": 20817, "BSTAR": 0, "MEAN_MOTION_DOT": 2.2e-07, "MEAN_MOTION_DDOT": 0}, "tle": {"line1": "1 24876U 97035A   25344.73835795  .00000022  00000+0  00000+0 0  9998", "line2": "2 24876  55.8943 105.9471 0096757  57.0036 303.9018  2.00563589208175"}}, "geometry": {"type": "Point", "coordinates": [-88.86880521533352, 20.621430139457562]}}, {"type": "Feature", "properties": {"norad_id": 26360, "name": "GPS BIIR-4  (PRN 20)", "group": "gps-ops", "lat": -48.28279215650099, "lon": -101.4721106923046, "alt_km": 20084.06245390465, "timestamp": "2025-12-11T22:43:47.527052+00:00", "meta": {"OBJECT_NAME": "GPS BIIR-4  (PRN 20)", "OBJECT_ID": "2000-025A", "EPOCH": "2025-12-11T15:38:07.687104", "MEAN_MOTION": 2.0056778, "ECCENTRICITY": 0.00388662, "INCLINATION": 55.0445, "RA_OF_ASC_NODE": 26.8818, "ARG_OF_PERICENTER": 241.8871, "MEAN_ANOMALY": 150.2644, "EPHEMERIS_TYPE": 0, "CLASSIFICATION_TYPE": "U", "NORAD_CAT_ID": 26360, "ELEMENT_SET_NO": 999, "REV_AT_EPOCH": 18751, "BSTAR": 0, "MEAN_MOTION_DOT": -1e-06, "MEAN_MOTION_DDOT": 0}, "tle": {"line1": "1 26360U 00025A   25345.65147786 -.00000100  00000+0  00000+0 0  9997", "line2": "2 26360  55.0445  26.8818 0038866 241.8871 150.2644  2.00567780187516"}}, "geometry": {"type": "Point", "coordinates": [-101.4721106923046, -48.28279215650099]}}, {"type": "Feature", "properties": {"norad_id": 26407, "name": "GPS BIIR-5  (PRN 22)", "group": "gps-ops", "lat": 54.69550409903761, "lon": -54.328840605250676, "alt_km": 20445.142575396778, "timestamp": "2025-12-11T22:43:47.527070+00:00", "meta": {"OBJECT_NAME": "GPS BIIR-5  (PRN 22)", "OBJECT_ID": "2000-040A", "EPOCH": "2025-12-11T13:24:36.235008", "MEAN_MOTION": 2.00567937, "ECCENTRICITY": 0.01260768, "INCLINATION": 54.891, "RA_OF_ASC_NODE": 222.6159, "ARG_OF_PERICENTER": 301.789, "MEAN_ANOMALY": 223.0098, "EPHEMERIS_TYPE": 0, "CLASSIFICATION_TYPE": "U", "NORAD_CAT_ID": 26407, "ELEMENT_SET_NO": 999, "REV_AT_EPOCH": 18618, "BSTAR": 0, "MEAN_MOTION_DOT": 3e-08, "MEAN_MOTION_DDOT": 0}, "tle": {"line1": "1 26407U 00040A   25345.55875272  .00000003  00000+0  00000+0 0  9994", "line2": "2 26407  54.8910 222.6159 0126076 301.7890 223.0098  2.00567937186182"}}, "geometry": {"type": "Point", "coordinates": [-54.328840605250676, 54.69550409903761]}}, {"type": "Feature", "properties": {"norad_id": 27663, "name": "GPS BIIR-8  (PRN 16)", "group": "gps-ops", "lat": -32.7328327318854, "lon": 69.24604008720054, "alt_km": 20570.84149002626, "timestamp": "2025-12-11T22:43:47.527085+00:00", "meta": {"OBJECT_NAME": "GPS BIIR-8  (PRN 16)", "OBJECT_ID": "2003-005A", "EPOCH": "2025-12-11T15:45:05.050944", "MEAN_MOTION": 2.00570963, "ECCENTRICITY": 0.01474213, "INCLINATION": 54.9236, "RA_OF_ASC_NODE": 222.4214, "ARG_OF_PERICENTER": 51.7853, "MEAN_ANOMALY": 319.3276, "EPHEMERIS_TYPE": 0, "CLASSIFICATION_TYPE": "U", "NORAD_CAT_ID": 27663, "ELEMENT_SET_NO": 999, "REV_AT_EPOCH": 16755, "BSTAR": 0, "MEAN_MOTION_DOT": 4e-08, "MEAN_MOTION_DDOT": 0}, "tle": {"line1": "1 27663U 03005A   25345.65630846  .00000004  00000+0  00000+0 0  9991", "line2": "2 27663  54.9236 222.4214 0147421  51.7853 319.3276  2.00570963167557"}}, "geometry": {"type": "Point", "coordinates": [69.24604008720054, -32.7328327318854]}}, {"type": "Feature", "properties": {"norad_id": 28190, "name": "GPS BIIR-11 (PRN 19)", "group": "gps-ops", "lat": 15.606261086897844, "lon": -65.48509798850479, "alt_km": 20425.049137732793, "timestamp": "2025-12-11T22:43:47.527100+00:00", "meta": {"OBJECT_NAME": "GPS BIIR-11 (PRN 19)", "OBJECT_ID": "2004-009A", "EPOCH": "2025-12-10T22:23:41.078112", "MEAN_MOTION": 2.00560808, "ECCENTRICITY": 0.0108323, "INCLINATION": 54.9873, "RA_OF_ASC_NODE": 283.2917, "ARG_OF_PERICENTER": 167.6172, "MEAN_ANOMALY": 200.0934, "EPHEMERIS_TYPE": 0, "CLASSIFICATION_TYPE": "U", "NORAD_CAT_ID": 28190, "ELEMENT_SET_NO": 999, "REV_AT_EPOCH": 15917, "BSTAR": 0, "MEAN_MOTION_DOT": -6.8e-07, "MEAN_MOTION_DDOT": 0}, "tle": {"line1": "1 28190U 04009A   25344.93311433 -.00000068  00000+0  00000+0 0  9991", "line2": "2 28190  54.9873 283.2917 0108323 167.6172 200.0934  2.00560808159177"}}, "geometry": {"type": "Point", "coordinates": [-65.48509798850479, 15.606261086897844]}}, {"type": "Feature", "properties": {"norad_id": 28474, "name": "GPS BIIR-13 (PRN 02)", "group": "gps-ops", "lat": 54.31016767163043, "lon": 47.56592645529728, "alt_km": 20476.52012674723, "timestamp": "2025-12-11T22:43:47.527113+00:00", "meta": {"OBJECT_NAME": "GPS BIIR-13 (PRN 02)", "OBJECT_ID": "2004-045A", "EPOCH": "2025-12-10T20:11:07.899360", "MEAN_MOTION": 2.00569385, "ECCENTRICITY": 0.0170728, "INCLINATION": 55.2416, "RA_OF_ASC_NODE": 332.4821, "ARG_OF_PERICENTER": 309.1641, "MEAN_ANOMALY": 52.133, "EPHEMERIS_TYPE": 0, "CLASSIFICATION_TYPE": "U", "NORAD_CAT_ID": 28474, "ELEMENT_SET_NO": 999, "REV_AT_EPOCH": 15465, "BSTAR": 0, "MEAN_MOTION_DOT": -8.5e-07, "MEAN_MOTION_DDOT": 0}, "tle": {"line1": "1 28474U 04045A   25344.84106365 -.00000085  00000+0  00000+0 0  9991", "line2": "2 28474  55.2416 332.4821 0170728 309.1641  52.1330  2.00569385154655"}}, "geometry": {"type": "Point", "coordinates": [47.56592645529728, 54.31016767163043]}}, {"type": "Feature", "properties": {"norad_id": 28874, "name": "GPS BIIRM-1 (PRN 17)", "group": "gps-ops", "lat": 31.95699102094227, "lon": -53.42982573087266, "alt_km": 20273.26354971715, "timestamp": "2025-12-11T22:43:47.527126+00:00", "meta": {"OBJECT_NAME": "GPS BIIRM-1 (PRN 17)", "OBJECT_ID": "2005-038A", "EPOCH": "2025-12-10T14:00:21.521088", "MEAN_MOTION": 2.00578486, "ECCENTRICITY": 0.0131701, "INCLINATION": 55.0338, "RA_OF_ASC_NODE": 280.7877, "ARG_OF_PERICENTER": 293.4518, "MEAN_ANOMALY": 200.7371, "EPHEMERIS_TYPE": 0, "CLASSIFICATION_TYPE": "U", "NORAD_CAT_ID": 28874, "ELEMENT_SET_NO": 999, "REV_AT_EPOCH": 14805, "BSTAR": 0, "MEAN_MOTION_DOT": -6.4e-07, "MEAN_MOTION_DDOT": 0}, "tle": {"line1": "1 28874U 05038A   25344.58358242 -.00000064  00000+0  00000+0 0  9999", "line2": "2 28874  55.0338 280.7877 0131701 293.4518 200.7371  2.00578486148057"}}, "geometry": {"type": "Point", "coordinates": [-53.42982573087266, 31.95699102094227]}}, {"type": "Feature", "properties": {"norad_id": 29486, "name": "GPS BIIRM-2 (PRN 31)", "group": "gps-ops", "lat": -44.4765756463875, "lon": 114.6595015312357, "alt_km": 20288.270694821305, "timestamp": "2025-12-11T22:43:47.527139+00:00", "meta": {"OBJECT_NAME": "GPS BIIRM-2 (PRN 31)", "OBJECT_ID": "2006-042A", "EPOCH": "2025-12-11T13:05:34.988640", "MEAN_MOTION": 2.00554186, "ECCENTRICITY": 0.01073607, "INCLINATION": 54.694, "RA_OF_ASC_NODE": 158.788, "ARG_OF_PERICENTER": 51.9324, "MEAN_ANOMALY": 320.1242, "EPHEMERIS_TYPE": 0, "CLASSIFICATION_TYPE": "U", "NORAD_CAT_ID": 29486, "ELEMENT_SET_NO": 999, "REV_AT_EPOCH": 14063, "BSTAR": 0, "MEAN_MOTION_DOT": 8.8e-07, "MEAN_MOTION_DDOT": 0}, "tle": {"line1": "1 29486U 06042A   25345.54554385  .00000088  00000+0  00000+0 0  9993", "line2": "2 29486  54.6940 158.7880 0107360  51.9324 320.1242  2.00554186140636"}}, "geometry": {"type": "Point", "coordinates": [114.6595015312357, -44.4765756463875]}}, {"type": "Feature", "properties": {"norad_id": 29601, "name": "GPS BIIRM-3 (PRN 12)", "group": "gps-ops", "lat": -1.2304583636276798, "lon": -139.4253269332363, "alt_km": 20175.172645192622, "timestamp": "2025-12-11T22:43:47.527151+00:00", "meta": {"OBJECT_NAME": "GPS BIIRM-3 (PRN 12)", "OBJECT_ID": "2006-052A", "EPOCH": "2025-12-10T22:50:57.183936", "MEAN_MOTION": 2.00573418, "ECCENTRICITY": 0.00877701, "INCLINATION": 54.9709, "RA_OF_ASC_NODE": 221.4692, "ARG_OF_PERICENTER": 87.4134, "MEAN_ANOMALY": 273.6662, "EPHEMERIS_TYPE": 0, "CLASSIFICATION_TYPE": "U", "NORAD_CAT_ID": 29601, "ELEMENT_SET_NO": 999, "REV_AT_EPOCH": 13963, "BSTAR": 0, "MEAN_MOTION_DOT": 3e-08, "MEAN_MOTION_DDOT": 0}, "tle": {"line1": "1 29601U 06052A   25344.95205074  .00000003  00000+0  00000+0 0  9992", "line2": "2 29601  54.9709 221.4692 0087770  87.4134 273.6662  2.00573418139630"}}, "geometry": {"type": "Point", "coordinates": [-139.4253269332363, -1.2304583636276798]}}, {"type": "Feature", "properties": {"norad_id": 32260, "name": "GPS BIIRM-4 (PRN 15)", "group": "gps-ops", "lat": 30.468249170785118, "lon": -117.54656113031301, "alt_km": 19929.3938387329, "timestamp": "2025-12-11T22:43:47.527163+00:00", "meta": {"OBJECT_NAME": "GPS BIIRM-4 (PRN 15)", "OBJECT_ID": "2007-047A", "EPOCH": "2025-12-10T06:15:19.310688", "MEAN_MOTION": 2.00564571, "ECCENTRICITY": 0.0164232, "INCLINATION": 53.9536, "RA_OF_ASC_NODE": 87.861, "ARG_OF_PERICENTER": 85.2178, "MEAN_ANOMALY": 276.6503, "EPHEMERIS_TYPE": 0, "CLASSIFICATION_TYPE": "U", "NORAD_CAT_ID": 32260, "ELEMENT_SET_NO": 999, "REV_AT_EPOCH": 13302, "BSTAR": 0, "MEAN_MOTION_DOT": -1.7e-07, "MEAN_MOTION_DDOT": 0}, "tle": {"line1": "1 32260U 07047A   25344.26064017 -.00000017  00000+0  00000+0 0  9992", "line2": "2 32260  53.9536  87.8610 0164232  85.2178 276.6503  2.00564571133023"}}, "geometry": {"type": "Point", "coordinates": [-117.54656113031301, 30.468249170785118]}}]}